{"type": "FeatureCollection", "features": [ {"type": "Feature", "properties": {"norad_id": 38779, "name": "GSAT-10 (GAGAN/PRN 128)", "group": "gnss", "lat": -0.021602115202585665, "lon": -96.10323283338357, "alt_km": 35793.69289039742, "timestamp": "2025-12-24T05:51:19.851351+00:00", "meta": {"OBJECT_NAME": "GSAT-10 (GAGAN/PRN 128)", "OBJECT_ID": "2012-051B", "EPOCH": "2025-12-23T22:05:15.477792", "MEAN_MOTION": 1.0027139, "ECCENTRICITY": 0.00022541, "INCLINATION": 0.0651, "RA_OF_ASC_NODE": 262.684, "ARG_OF_PERICENTER": 219.6937, "MEAN_ANOMALY": 24.6728, "EPHEMERIS_TYPE": 0, "CLASSIFICATION_TYPE": "U", "NORAD_CAT_ID": 38779, "ELEMENT_SET_NO": 999, "REV_AT_EPOCH": 4834, "BSTAR": 0, "MEAN_MOTION_DOT": -1.44e-06, "MEAN_MOTION_DDOT": 0}, "tle": {"line1": "1 38779U 12051B   25357.92031803 -.00000144  00000+0  00000+0 0  9999", "line2": "2 38779   0.0651 262.6840 0002254 219.6937  24.6728  1.00271390 48347"}}, "geometry": {"type": "Point", "coordinates": [-96.10323283338357, -0.021602115202585665]}}, {"type": "Feature", "properties": {"norad_id": 38833, "name": "GPS BIIF-3  (PRN 24)", "group": "gnss", "lat": -40.37323332843279, "lon": 111.84491119234765, "alt_km": 20398.329193564903, "timestamp": "2025-12-24T05:51:19.851363+00:00", "meta": {"OBJECT_NAME": "GPS BIIF-3  (PRN 24)", "OBJECT_ID": "2012-053A", "EPOCH": "2025-12-23T07:42:27.651168", "MEAN_MOTION": 2.00565064, "ECCENTRICITY": 0.01760539, "INCLINATION": 53.5596, "RA_OF_ASC_NODE": 150.8054, "ARG_OF_PERICENTER": 64.149, "MEAN_ANOMALY": 297.6308, "EPHEMERIS_TYPE": 0, "CLASSIFICATION_TYPE": "U", "NORAD_CAT_ID": 38833, "ELEMENT_SET_NO": 999, "REV_AT_EPOCH": 9591, "BSTAR": 0, "MEAN_MOTION_DOT": 7.4e-07, "MEAN_MOTION_DDOT": 0}, "tle": {"line1": "1 38833U 12053A   25357.32115337  .00000074  00000+0  00000+0 0  9992", "line2": "2 38833  53.5596 150.8054 0176053  64.1490 297.6308  2.00565064 95916"}}, "geometry": {"type": "Point", "coordinates": [111.84491119234765, -40.37323332843279]}}, {"type": "Feature", "properties": {"norad_id": 38857, "name": "GSAT0103 (GALILEO-FM3)", "group": "gnss", "lat": 55.12914301153447, "lon": -151.64545487825603, "alt_km": 23224.69096840415, "timestamp": "2025-12-24T05:51:19.851377+00:00", "meta": {"OBJECT_NAME": "GSAT0103 (GALILEO-FM3)", "OBJECT_ID": "2012-055A", "EPOCH": "2025-12-22T21:54:43.252704", "MEAN_MOTION": 1.70473351, "ECCENTRICITY": 0.0002995, "INCLINATION": 55.698, "RA_OF_ASC_NODE": 106.3873, "ARG_OF_PERICENTER": 269.858, "MEAN_ANOMALY": 90.0891, "EPHEMERIS_TYPE": 0, "CLASSIFICATION_TYPE": "U", "NORAD_CAT_ID": 38857, "ELEMENT_SET_NO": 999, "REV_AT_EPOCH": 8200, "BSTAR": 0, "MEAN_MOTION_DOT": 1e-07, "MEAN_MOTION_DDOT": 0}, "tle": {"line1": "1 38857U 12055A   25356.91300061  .00000010  00000+0  00000+0 0  9994", "line2": "2 38857  55.6980 106.3873 0002995 269.8580  90.0891  1.70473351 82005"}}, "geometry": {"type": "Point", "coordinates": [-151.64545487825603, 55.12914301153447]}}, {"type": "Feature", "properties": {"norad_id": 38953, "name": "BEIDOU-2 G6 (C02)", "group": "gnss", "lat": -0.6595899874470547, "lon": -95.3604317609952, "alt_km": 35795.02564236658, "timestamp": "2025-12-24T05:51:19.851391+00:00", "meta": {"OBJECT_NAME": "BEIDOU-2 G6 (C02)", "OBJECT_ID": "2012-059A", "EPOCH": "2025-12-23T17:40:08.745312", "MEAN_MOTION": 1.00268216, "ECCENTRICITY": 0.00083291, "INCLINATION": 3.9754, "RA_OF_ASC_NODE": 75.3987, "ARG_OF_PERICENTER": 292.2173, "MEAN_ANOMALY": 73.8502, "EPHEMERIS_TYPE": 0, "CLASSIFICATION_TYPE": "U", "NORAD_CAT_ID": 38953, "ELEMENT_SET_NO": 999, "REV_AT_EPOCH": 4815, "BSTAR": 0, "MEAN_MOTION_DOT": -1.54e-06, "MEAN_MOTION_DDOT": 0}, "tle": {"line1": "1 38953U 12059A   25357.73621233 -.00000154  00000+0  00000+0 0  9993", "line2": "2 38953   3.9754  75.3987 0008329 292.2173  73.8502  1.00268216 48154"}}, "geometry": {"type": "Point", "coordinates": [-95.3604317609952, -0.6595899874470547]}}, {"type": "Feature", "properties": {"norad_id": 38977, "name": "LUCH 5B (SDCM/PRN 125)", "group": "gnss", "lat": 9.317952631379963, "lon": 164.77452235582027, "alt_km": 35781.6494718683, "timestamp": "2025-12-24T05:51:19.851402+00:00", "meta": {"OBJECT_NAME": "LUCH 5B (SDCM/PRN 125)", "OBJECT_ID": "2012-061A", "EPOCH": "2025-12-23T23:19:30.865728", "MEAN_MOTION": 1.00271916, "ECCENTRICITY": 0.00066022, "INCLINATION": 10.1038, "RA_OF_ASC_NODE": 51.5975, "ARG_OF_PERICENTER": 196.0445, "MEAN_ANOMALY": 178.6636, "EPHEMERIS_TYPE": 0, "CLASSIFICATION_TYPE": "U", "NORAD_CAT_ID": 38977, "ELEMENT_SET_NO": 999, "REV_AT_EPOCH": 4785, "BSTAR": 0, "MEAN_MOTION_DOT": -1.21e-06, "MEAN_MOTION_DDOT": 0}, "tle": {"line1": "1 38977U 12061A   25357.97188502 -.00000121  00000+0  00000+0 0  9999", "line2": "2 38977  10.1038  51.5975 0006602 196.0445 178.6636  1.00271916 47852"}}, "geometry": {"type": "Point", "coordinates": [164.77452235582027, 9.317952631379963]}}, {"type": "Feature", "properties": {"norad_id": 39155, "name": "COSMOS 2485 (747)", "group": "gnss", "lat": -62.758207499863246, "lon": 16.401124814311064, "alt_km": 19096.523688626083, "timestamp": "2025-12-24T05:51:19.851413+00:00", "meta": {"OBJECT_NAME": "COSMOS 2485 (747)", "OBJECT_ID": "2013-019A", "EPOCH": "2025-12-22T22:30:40.320288", "MEAN_MOTION": 2.13103234, "ECCENTRICITY": 0.00250055, "INCLINATION": 65.3186, "RA_OF_ASC_NODE": 79.5244, "ARG_OF_PERICENTER": 230.4541, "MEAN_ANOMALY": 129.3696, "EPHEMERIS_TYPE": 0, "CLASSIFICATION_TYPE": "U", "NORAD_CAT_ID": 39155, "ELEMENT_SET_NO": 999, "REV_AT_EPOCH": 9852, "BSTAR": 0, "MEAN_MOTION_DOT": 0, "MEAN_MOTION_DDOT": 0}, "tle": {"line1": "1 39155U 13019A   25356.93796667  .00000000  00000+0  00000+0 0  9999", "line2": "2 39155  65.3186  79.5244 0025005 230.4541 129.3696  2.13103234 98525"}}, "geometry": {"type": "Point", "coordinates": [16.401124814311064, -62.758207499863246]}}, {"type": "Feature", "properties": {"norad_id": 39166, "name": "GPS BIIF-4  (PRN 27)", "group": "gnss", "lat": 35.593014911089135, "lon": -53.407152283710396, "alt_km": 19810.62066780829, "timestamp": "2025-12-24T05:51:19.851425+00:00", "meta": {"OBJECT_NAME": "GPS BIIF-4  (PRN 27)", "OBJECT_ID": "2013-023A", "EPOCH": "2025-12-23T04:26:51.199584", "MEAN_MOTION": 2.00564619, "ECCENTRICITY": 0.013854, "INCLINATION": 54.643, "RA_OF_ASC_NODE": 276.1436, "ARG_OF_PERICENTER": 48.7451, "MEAN_ANOMALY": 312.486, "EPHEMERIS_TYPE": 0, "CLASSIFICATION_TYPE": "U", "NORAD_CAT_ID": 39166, "ELEMENT_SET_NO": 999, "REV_AT_EPOCH": 9235, "BSTAR": 0, "MEAN_MOTION_DOT": -1.4e-07, "MEAN_MOTION_DDOT": 0}, "tle": {"line1": "1 39166U 13023A   25357.18531481 -.00000014  00000+0  00000+0 0  9991", "line2": "2 39166  54.6430 276.1436 0138540  48.7451 312.4860  2.00564619 92354"}}, "geometry": {"type": "Point", "coordinates": [-53.407152283710396, 35.593014911089135]}}, {"type": "Feature", "properties": {"norad_id": 39199, "name": "IRNSS-1A", "group": "gnss", "lat": 6.307661556186658, "lon": -122.54666233429909, "alt_km": 35713.00367633476, "timestamp": "2025-12-24T05:51:19.851436+00:00", "meta": {"OBJECT_NAME": "IRNSS-1A", "OBJECT_ID": "2013-034A", "EPOCH": "2025-12-23T18:31:50.766240", "MEAN_MOTION": 1.00273261, "ECCENTRICITY": 0.00244469, "INCLINATION": 35.3346, "RA_OF_ASC_NODE": 66.3922, "ARG_OF_PERICENTER": 214.961, "MEAN_ANOMALY": 143.9705, "EPHEMERIS_TYPE": 0, "CLASSIFICATION_TYPE": "U", "NORAD_CAT_ID": 39199, "ELEMENT_SET_NO": 999, "REV_AT_EPOCH": 4560, "BSTAR": 0, "MEAN_MOTION_DOT": 7.8e-07, "MEAN_MOTION_DDOT": 0}, "tle": {"line1": "1 39199U 13034A   25357.77211535  .00000078  00000+0  00000+0 0  9998", "line2": "2 39199  35.3346  66.3922 0024446 214.9610 143.9705  1.00273261 45604"}}, "geometry": {"type": "Point", "coordinates": [-122.54666233429909, 6.307661556186658]}}, {"type": "Feature", "properties": {"norad_id": 39533, "name": "GPS BIIF-5  (PRN 30)", "group": "gnss", "lat": 36.6820946956094, "lon": -170.22204878258873, "alt_km": 20390.140085598363, "timestamp": "2025-12-24T05:51:19.851447+00:00", "meta": {"OBJECT_NAME": "GPS BIIF-5  (PRN 30)", "OBJECT_ID": "2014-008A", "EPOCH": "2025-12-20T16:28:24.690432", "MEAN_MOTION": 2.00548724, "ECCENTRICITY": 0.00795742, "INCLINATION": 53.6246, "RA_OF_ASC_NODE": 156.6308, "ARG_OF_PERICENTER": 226.1122, "MEAN_ANOMALY": 133.2164, "EPHEMERIS_TYPE": 0, "CLASSIFICATION_TYPE": "U", "NORAD_CAT_ID": 39533, "ELEMENT_SET_NO": 999, "REV_AT_EPOCH": 8610, "BSTAR": 0, "MEAN_MOTION_DOT": 6.5e-07, "MEAN_MOTION_DDOT": 0}, "tle": {"line1": "1 39533U 14008A   25354.68639688  .00000065  00000+0  00000+0 0  9998", "line2": "2 39533  53.6246 156.6308 0079574 226.1122 133.2164  2.00548724 86105"}}, "geometry": {"type": "Point", "coordinates": [-170.22204878258873, 36.6820946956094]}}, {"type": "Feature", "properties": {"norad_id": 39617, "name": "ASTRA 5B (EGNOS/PRN 123)", "group": "gnss", "lat": -0.01577810748152549, "lon": -155.7088411658458, "alt_km": 35781.33101882733, "timestamp": "2025-12-24T05:51:19.851458+00:00", "meta": {"OBJECT_NAME": "ASTRA 5B (EGNOS/PRN 123)", "OBJECT_ID": "2014-011B", "EPOCH": "2025-12-23T21:01:38.691264", "MEAN_MOTION": 1.00270798, "ECCENTRICITY": 0.00045475, "INCLINATION": 0.0439, "RA_OF_ASC_NODE": 10.5996, "ARG_OF_PERICENTER": 268.7426, "MEAN_ANOMALY": 152.2231, "EPHEMERIS_TYPE": 0, "CLASSIFICATION_TYPE": "U", "NORAD_CAT_ID": 39617, "ELEMENT_SET_NO": 999, "REV_AT_EPOCH": 4291, "BSTAR": 0, "MEAN_MOTION_DOT": 1.58e-06, "MEAN_MOTION_DDOT": 0}, "tle": {"line1": "1 39617U 14011B   25357.87614226  .00000158  00000+0  00000+0 0  9993", "line2": "2 39617   0.0439  10.5996 0004547 268.7426 152.2231  1.00270798 42915"}}, "geometry": {"type": "Point", "coordinates": [-155.7088411658458, -0.01577810748152549]}}]}